{
    "links": {
        "self": "http://www.neowsapp.com/rest/v1/neo/3463176?api_key=iIulBulltgU6a56xZRHN4H3l9WmuAYTsLGpBGhQ2"
    },
    "id": "3463176",
    "neo_reference_id": "3463176",
    "name": "(2009 MA)",
    "designation": "2009 MA",
    "nasa_jpl_url": "http://ssd.jpl.nasa.gov/sbdb.cgi?sstr=3463176",
    "absolute_magnitude_h": 21.6,
    "estimated_diameter": {
        "kilometers": {
            "estimated_diameter_min": 0.1272198785,
            "estimated_diameter_max": 0.2844722965
        },
        "meters": {
            "estimated_diameter_min": 127.2198785394,
            "estimated_diameter_max": 284.4722965033
        },
        "miles": {
            "estimated_diameter_min": 0.0790507431,
            "estimated_diameter_max": 0.1767628354
        },
        "feet": {
            "estimated_diameter_min": 417.3880663071,
            "estimated_diameter_max": 933.3080892598
        }
    },
    "is_potentially_hazardous_asteroid": false,
    "close_approach_data": [
        {
            "close_approach_date": "2009-07-06",
            "close_approach_date_full": "2009-Jul-06 23:18",
            "epoch_date_close_approach": 1246922280000,
            "relative_velocity": {
                "kilometers_per_second": "12.2899645346",
                "kilometers_per_hour": "44243.8723245928",
                "miles_per_hour": "27491.4216674671"
            },
            "miss_distance": {
                "astronomical": "0.0660383913",
                "lunar": "25.6889342157",
                "kilometers": "9879202.676706531",
                "miles": "6138651.8902348878"
            },
            "orbiting_body": "Earth"
        }
    ],
    "orbital_data": {
        "orbit_id": "21",
        "orbit_determination_date": "2017-04-06 09:00:26",
        "first_observation_date": "2009-06-16",
        "last_observation_date": "2009-07-10",
        "data_arc_in_days": 24,
        "observations_used": 138,
        "orbit_uncertainty": "7",
        "minimum_orbit_intersection": ".0628895",
        "jupiter_tisserand_invariant": "3.614",
        "epoch_osculation": "2459000.5",
        "eccentricity": ".4878615904062162",
        "semi_major_axis": "2.014700708154309",
        "inclination": "18.25169662924254",
        "ascending_node_longitude": "98.73600260912053",
        "orbital_period": "1044.513928180765",
        "perihelion_distance": "1.031805616481618",
        "perihelion_argument": "212.8379902401125",
        "aphelion_distance": "2.997595799827",
        "perihelion_time": "2459223.503281731089",
        "mean_anomaly": "283.1401523165726",
        "mean_motion": ".3446579220125994",
        "equinox": "J2000",
        "orbit_class": {
            "orbit_class_type": "AMO",
            "orbit_class_description": "Near-Earth asteroid orbits similar to that of 1221 Amor",
            "orbit_class_range": "1.017 AU < q (perihelion) < 1.3 AU"
        }
    },
    "is_sentry_object": false
}